INTELSAT 10 (IS-10)     
1 26766U 01019A   26024.42208245 -.00000216  00000+0  00000+0 0  9997
2 26766   8.7296  60.7176 0008382 245.2595 284.6293  0.99075858 44150
INTELSAT 902 (IS-902)   
1 26900U 01039A   26024.46850449 -.00000271  00000+0  00000+0 0  9993
2 26900   5.7547  73.5568 0004476 235.9506 292.8257  1.00271227 89253
INTELSAT 904 (IS-904)   
1 27380U 02007A   26024.42476914 -.00000214  00000+0  00000+0 0  9996
2 27380   6.5593  70.9259 0003614 281.0470 253.1844  1.00271207 50325
DIRECTV 5 (TEMPO 1)     
1 27426U 02023A   26024.34162280 -.00000044  00000+0  00000+0 0  9995
2 27426   4.5088  77.1332 0003399 234.4523 184.9322  1.00271470 86687
INTELSAT 905 (IS-905)   
1 27438U 02027A   26024.35233590  .00000106  00000+0  00000+0 0  9994
2 27438   6.3905  71.5488 0003023 237.7937 163.9714  1.00273159 49921
GALAXY 3C (G-3C)        
1 27445U 02030A   26024.41202905 -.00000139  00000+0  00000+0 0  9996
2 27445   3.3671  80.0089 0000819  83.7524  13.4486  1.00271182 45058
INTELSAT 906 (IS-906)   
1 27513U 02041A   26024.22976804  .00000026  00000+0  00000+0 0  9993
2 27513   5.4375  74.7154 0005059 215.3155 340.3651  1.00271886 85584
GALAXY 13 (HORIZONS-1)  
1 27954U 03044A   26024.46331227  .00000147  00000+0  00000+0 0  9990
2 27954   1.0471  85.9154 0002178 222.1547 192.4697  1.00273221 45134
INTELSAT 10-02          
1 28358U 04022A   26024.35950876  .00000004  00000+0  00000+0 0  9993
2 28358   0.0180  74.7461 0001199 246.9438 290.4480  1.00271561 79110
XM-3 (RHYTHM)           
1 28626U 05008A   26024.41350241 -.00000010  00000+0  00000+0 0  9991
2 28626   0.2829  83.5285 0003703 279.9587 180.7308  0.98950092 41170
DIRECTV 8               
1 28659U 05019A   26024.47876278  .00000016  00000+0  00000+0 0  9993
2 28659   0.0158  84.4414 0003117 226.6668 225.9893  1.00270950 75632
GALAXY 28 (G-28)        
1 28702U 05022A   26024.46850449 -.00000244  00000+0  00000+0 0  9991
2 28702   2.9291  80.7700 0002254 204.2492 320.1180  1.00588974 50532
GALAXY 16 (G-16)        
1 29236U 06023A   26024.49628172 -.00000112  00000+0  00000+0 0  9999
2 29236   0.0319 179.7252 0002713 124.9086 258.8235  1.00271456 71538
DIRECTV 9S              
1 29494U 06043A   26024.49628172 -.00000099  00000+0  00000+0 0  9991
2 29494   2.0485  82.7270 0003057 223.5915 254.9427  1.00271113 49942
GALAXY 17 (G-17)        
1 31307U 07016B   26024.41419574 -.00000192  00000+0  00000+0 0  9998
2 31307   2.6059  81.7725 0004992 200.5326 265.5424  1.00270621 68360
DIRECTV 10              
1 31862U 07032A   26024.49628172 -.00000088  00000+0  00000+0 0  9990
2 31862   0.0354 117.7770 0000526 141.0922 300.8136  1.00271311 44157
INTELSAT 11 (IS-11)     
1 32253U 07044B   26024.22474134  .00000051  00000+0  00000+0 0  9995
2 32253   3.1887  80.4781 0007583 185.8673 336.9189  0.99048541 67027
HORIZONS-2              
1 32388U 07063B   26024.50253179 -.00000240  00000+0  00000+0 0  9991
2 32388   2.2302  82.4712 0003981 212.3522 296.1179  1.00271827 66372
DIRECTV 11              
1 32729U 08013A   26024.49628172 -.00000111  00000+0  00000+0 0  9990
2 32729   0.0042 225.4930 0000244 106.8820 230.9091  1.00273635 44156
GALAXY 18 (G-18)        
1 32951U 08024A   26024.47798275  .00000040  00000+0  00000+0 0  9999
2 32951   0.0142  70.0727 0003196 236.9820 225.7907  1.00271522 44416
INTELSAT 25 (IS-25)     
1 33153U 08034A   26024.46850449 -.00000210  00000+0  00000+0 0  9996
2 33153   2.3357  82.1484 0004722 212.8844 325.9081  1.00269744 64256
GALAXY 19 (G-19)        
1 33376U 08045A   26024.19211479 -.00000124  00000+0  00000+0 0  9993
2 33376   0.0509 253.3754 0002727  48.5603 153.7207  1.00270790 63461
FM-5                    
1 35493U 09034A   26024.49072705 -.00000184  00000+0  00000+0 0  9990
2 35493   0.0398 258.1654 0001210 288.8189  27.3228  1.00266445 45208
INTELSAT 14 (IS-14)     
1 36097U 09064A   26024.47405959 -.00000258  00000+0  00000+0 0  9995
2 36097   0.0151  70.3239 0002510 228.8878 310.2407  1.00272451 59169
INTELSAT 15 (IS-15)     
1 36106U 09067A   26024.44790927 -.00000170  00000+0  00000+0 0  9991
2 36106   0.0140  58.7957 0002595 263.5002  47.8583  1.00271082 39786
DIRECTV 12              
1 36131U 09075A   26024.49628172 -.00000089  00000+0  00000+0 0  9994
2 36131   0.0023 221.4728 0000464 131.2217 207.0661  1.00273905 45118
INTELSAT 16 (IS-16)     
1 36397U 10006A   26024.50253179 -.00000230  00000+0  00000+0 0  9995
2 36397   0.0152  43.1589 0002190 254.6213 290.7466  1.00271701 58212
XM-5                    
1 37185U 10053A   26024.40255270 -.00000008  00000+0  00000+0 0  9999
2 37185   0.0652 263.8173 0002699 261.0085 348.6096  1.00273367 56047
INTELSAT 17 (IS-17)     
1 37238U 10065B   26024.44409593  .00000014  00000+0  00000+0 0  9990
2 37238   0.0087  95.8690 0002428 209.8732  43.8805  1.00271879 51801
INTELSAT 28 (IS-28)     
1 37392U 11016A   26024.46850449 -.00000211  00000+0  00000+0 0  9990
2 37392   1.4330  84.5552 0004095 215.4649 320.7143  1.00270571 51846
INTELSAT 18 (IS-18)     
1 37834U 11056A   26024.46671604  .00000068  00000+0  00000+0 0  9998
2 37834   0.0342 274.5759 0001983  35.7663 161.4661  1.00273016 52378
INTELSAT 22 (IS-22)     
1 38098U 12011A   26024.15991054 -.00000043  00000+0  00000+0 0  9997
2 38098   0.0104  23.1210 0001660 285.3154 304.6933  1.00272204  5747
INTELSAT 19 (IS-19)     
1 38356U 12030A   26024.46394267 -.00000042  00000+0  00000+0 0  9991
2 38356   0.0193  71.0831 0003148 239.3866 146.3248  1.00271388 49015
INTELSAT 20 (IS-20)     
1 38740U 12043A   26024.15930387 -.00000008  00000+0  00000+0 0  9999
2 38740   0.0194  88.1862 0001868  70.4997  90.6183  1.00268755 49307
INTELSAT 21 (IS-21)     
1 38749U 12045A   26024.47961427 -.00000270  00000+0  00000+0 0  9995
2 38749   0.0202  69.2932 0001856 235.1118 294.0464  1.00271738 49088
INTELSAT 23 (IS-23)     
1 38867U 12057A   26024.04836347 -.00000270  00000+0  00000+0 0  9994
2 38867   0.0409 253.8690 0002210  46.5239 147.3482  1.00264652 48506
FM-6                    
1 39360U 13058A   26024.33671530 -.00000002  00000+0  00000+0 0  9991
2 39360   0.0295  94.2199 0002922  84.3031 310.1483  1.00272613 44636
INTELSAT 30 (IS-30)     
1 40271U 14062A   26024.38765742 -.00000136  00000+0  00000+0 0  9992
2 40271   0.0118  55.0621 0001192  50.5970  62.5370  1.00272941  5356
DIRECTV 14              
1 40333U 14078B   26024.44237259 -.00000110  00000+0  00000+0 0  9994
2 40333   0.0194  64.7558 0000492 129.6552 349.3612  1.00269759 40606
DIRECTV 15              
1 40663U 15026A   26024.39307721 -.00000088  00000+0  00000+0 0  9994
2 40663   0.0131  83.3464 0000547 108.7251 330.2519  1.00273869 39027
SKY MEXICO-1            
1 40664U 15026B   26024.50253179 -.00000219  00000+0  00000+0 0  9991
2 40664   0.0128  71.0019 0002104 233.7752 281.1971  1.00271561 39012
INTELSAT 34 (IS-34)     
1 40874U 15039A   26024.13469039 -.00000270  00000+0  00000+0 0  9998
2 40874   0.0223 308.7241 0000575 255.1336 272.5707  1.00271696 38181
INTELSAT 31 (IS-31)     
1 41581U 16035A   26024.33378038 -.00000136  00000+0  00000+0 0  9992
2 41581   0.0121 267.8643 0002075 312.4428 288.4381  1.00271227 35249
INTELSAT 36 (IS-36)     
1 41747U 16053A   26024.15930388 -.00000009  00000+0  00000+0 0  9997
2 41747   0.0091  37.6778 0001251 277.1486 294.4975  1.00269906 34502
INTELSAT 32E (IS-32E)   
1 41945U 17007B   26024.42242913 -.00000254  00000+0  00000+0 0  9999
2 41945   0.0159  82.8732 0000400 282.4831 227.2728  1.00272448 32780
INTELSAT 35E (IS-35E)   
1 42818U 17041A   26024.42416248 -.00000223  00000+0  00000+0 0  9997
2 42818   0.0181  79.4813 0002088 223.7526 298.7046  1.00272454 31377
INTELSAT 37E (IS-37E)   
1 42950U 17059A   26024.35612875 -.00000126  00000+0  00000+0 0  9991
2 42950   0.0191  76.1479 0002796 214.4831 303.2478  1.00272117 30623
AZERSPACE 2 (IS-38)     
1 43632U 18074A   26024.22595468  .00000152  00000+0  00000+0 0  9999
2 43632   0.0149  70.4215 0001526 231.3847 308.1892  1.00270754 27001
HORIZONS-3E             
1 43633U 18074B   26023.41711318  .00000000  00000+0  00000+0 0  9996
2 43633   0.0121 213.9158 0000645 136.9843  91.0095  1.00265932 26889
AT&T T-16               
1 44333U 19034A   26024.49628172 -.00000100  00000+0  00000+0 0  9997
2 44333   0.0198  83.2832 0001091  89.3518  28.9691  1.00270364 24192
INTELSAT 39 (IS-39)     
1 44476U 19049B   26024.44331590  .00000049  00000+0  00000+0 0  9992
2 44476   0.0152  72.4629 0000923  93.4704 179.3548  1.00270444 23684
GALAXY 30 (G-30)        
1 46114U 20056C   26024.47754943  .00000052  00000+0  00000+0 0  9991
2 46114   0.0160  71.6144 0002249 237.5470 221.5335  1.00270865 19856
GALAXY 33 (G-33)        
1 54026U 22128A   26024.49512759  .00000000  00000+0  00000+0 0  9996
2 54026   0.0225  56.7191 0001990 247.8336 224.5061  1.00271043 12303
GALAXY 34 (G-34)        
1 54027U 22128B   26024.45044969  .00000074  00000+0  00000+0 0  9997
2 54027   0.0169  60.6034 0001371 247.0641 209.2290  1.00270562 12472
GALAXY 31 (G-31)        
1 54243U 22153A   26022.69525436  .00000000  00000+0  00000+0 0  9991
2 54243   0.0162 108.7547 0001611 201.1237 301.4593  1.00269687  5678
GALAXY 32 (G-32)        
1 54244U 22153B   26024.37588925 -.00000159  00000+0  00000+0 0  9997
2 54244   0.0114  61.8409 0002612 268.4338 197.7317  1.00271679 11707
GALAXY 35 (G-35)        
1 54741U 22170A   26024.49072705 -.00000147  00000+0  00000+0 0  9992
2 54741   0.0317 215.6256 0002217  88.4783 263.2463  1.00270185 11452
GALAXY 36 (G-36)        
1 54742U 22170B   26024.49072705 -.00000170  00000+0  00000+0 0  9999
2 54742   0.0213 112.3962 0001043 258.1032 200.9647  1.00271771 11335
GALAXY 37 (G-37)        
1 57493U 23112A   26023.90640909  .00000063  00000+0  00000+0 0  9994
2 57493   0.0124  72.0897 0002101 234.7864  15.6402  1.00271877  9097
